{"type": "FeatureCollection", "features": [ {"type": "Feature", "properties": {"norad_id": 31365, "name": "FENGYUN 1C DEB", "group": "fengyun-1c-debris", "lat": 78.01425335716196, "lon": -71.8228330444838, "alt_km": 771.210584436064, "timestamp": "2025-12-03T06:58:43.519947+00:00", "meta": {"OBJECT_NAME": "FENGYUN 1C DEB", "OBJECT_ID": "1999-025BRV", "EPOCH": "2025-12-01T04:32:54.064896", "MEAN_MOTION": 14.41592, "ECCENTRICITY": 0.004167, "INCLINATION": 98.6754, "RA_OF_ASC_NODE": 60.0561, "ARG_OF_PERICENTER": 253.437, "MEAN_ANOMALY": 106.2239, "EPHEMERIS_TYPE": 0, "CLASSIFICATION_TYPE": "U", "NORAD_CAT_ID": 31365, "ELEMENT_SET_NO": 999, "REV_AT_EPOCH": 96462, "BSTAR": 0.0025507, "MEAN_MOTION_DOT": 8.348e-05, "MEAN_MOTION_DDOT": 0}, "tle": {"line1": "1 31365U 99025BRV 25335.18951464  .00008348  00000+0  25507-2 0  9992", "line2": "2 31365  98.6754  60.0561 0041670 253.4370 106.2239 14.41592000964625"}}, "geometry": {"type": "Point", "coordinates": [-71.8228330444838, 78.01425335716196]}}, {"type": "Feature", "properties": {"norad_id": 31367, "name": "FENGYUN 1C DEB", "group": "fengyun-1c-debris", "lat": 12.23274854148845, "lon": 53.148545249101055, "alt_km": 773.565589104126, "timestamp": "2025-12-03T06:58:43.519957+00:00", "meta": {"OBJECT_NAME": "FENGYUN 1C DEB", "OBJECT_ID": "1999-025BRX", "EPOCH": "2025-12-01T16:18:30.267072", "MEAN_MOTION": 14.4740408, "ECCENTRICITY": 0.00999451, "INCLINATION": 98.746, "RA_OF_ASC_NODE": 229.5709, "ARG_OF_PERICENTER": 49.3475, "MEAN_ANOMALY": 6.2787, "EPHEMERIS_TYPE": 0, "CLASSIFICATION_TYPE": "U", "NORAD_CAT_ID": 31367, "ELEMENT_SET_NO": 999, "REV_AT_EPOCH": 98306, "BSTAR": 0.00062003348, "MEAN_MOTION_DOT": 2.37e-05, "MEAN_MOTION_DDOT": 0}, "tle": {"line1": "1 31367U 99025BRX 25335.67951698  .00002370  00000+0  62003-3 0  9999", "line2": "2 31367  98.7460 229.5709 0099945  49.3475   6.2787 14.47404080983066"}}, "geometry": {"type": "Point", "coordinates": [53.148545249101055, 12.23274854148845]}}, {"type": "Feature", "properties": {"norad_id": 31369, "name": "FENGYUN 1C DEB", "group": "fengyun-1c-debris", "lat": 81.37680447815988, "lon": -131.65268687032332, "alt_km": 841.3375084813133, "timestamp": "2025-12-03T06:58:43.519967+00:00", "meta": {"OBJECT_NAME": "FENGYUN 1C DEB", "OBJECT_ID": "1999-025BRZ", "EPOCH": "2025-12-02T05:15:55.988064", "MEAN_MOTION": 14.19388452, "ECCENTRICITY": 0.005489, "INCLINATION": 98.6175, "RA_OF_ASC_NODE": 317.7793, "ARG_OF_PERICENTER": 330.1727, "MEAN_ANOMALY": 47.9039, "EPHEMERIS_TYPE": 0, "CLASSIFICATION_TYPE": "U", "NORAD_CAT_ID": 31369, "ELEMENT_SET_NO": 999, "REV_AT_EPOCH": 64178, "BSTAR": 0.00040201, "MEAN_MOTION_DOT": 8.15e-06, "MEAN_MOTION_DDOT": 0}, "tle": {"line1": "1 31369U 99025BRZ 25336.21939801  .00000815  00000+0  40201-3 0  9992", "line2": "2 31369  98.6175 317.7793 0054890 330.1727  47.9039 14.19388452641789"}}, "geometry": {"type": "Point", "coordinates": [-131.65268687032332, 81.37680447815988]}}, {"type": "Feature", "properties": {"norad_id": 31370, "name": "FENGYUN 1C DEB", "group": "fengyun-1c-debris", "lat": -13.078154680310142, "lon": 155.51278886149154, "alt_km": 881.4980430166524, "timestamp": "2025-12-03T06:58:43.519977+00:00", "meta": {"OBJECT_NAME": "FENGYUN 1C DEB", "OBJECT_ID": "1999-025BSA", "EPOCH": "2025-12-01T11:28:36.495552", "MEAN_MOTION": 14.09683379, "ECCENTRICITY": 0.00339887, "INCLINATION": 98.7534, "RA_OF_ASC_NODE": 335.8016, "ARG_OF_PERICENTER": 330.8573, "MEAN_ANOMALY": 29.07, "EPHEMERIS_TYPE": 0, "CLASSIFICATION_TYPE": "U", "NORAD_CAT_ID": 31370, "ELEMENT_SET_NO": 999, "REV_AT_EPOCH": 96135, "BSTAR": 0.00040658383, "MEAN_MOTION_DOT": 6.74e-06, "MEAN_MOTION_DDOT": 0}, "tle": {"line1": "1 31370U 99025BSA 25335.47820018  .00000674  00000+0  40658-3 0  9999", "line2": "2 31370  98.7534 335.8016 0033988 330.8573  29.0700 14.09683379961350"}}, "geometry": {"type": "Point", "coordinates": [155.51278886149154, -13.078154680310142]}}, {"type": "Feature", "properties": {"norad_id": 31371, "name": "FENGYUN 1C DEB", "group": "fengyun-1c-debris", "lat": -80.84772383229038, "lon": 83.91616356216886, "alt_km": 829.3539968959703, "timestamp": "2025-12-03T06:58:43.519987+00:00", "meta": {"OBJECT_NAME": "FENGYUN 1C DEB", "OBJECT_ID": "1999-025BSB", "EPOCH": "2025-12-02T19:25:17.692320", "MEAN_MOTION": 14.04467931, "ECCENTRICITY": 0.0077621, "INCLINATION": 98.7674, "RA_OF_ASC_NODE": 10.1417, "ARG_OF_PERICENTER": 274.6394, "MEAN_ANOMALY": 84.5912, "EPHEMERIS_TYPE": 0, "CLASSIFICATION_TYPE": "U", "NORAD_CAT_ID": 31371, "ELEMENT_SET_NO": 999, "REV_AT_EPOCH": 95607, "BSTAR": 0.0011428, "MEAN_MOTION_DOT": 1.829e-05, "MEAN_MOTION_DDOT": 0}, "tle": {"line1": "1 31371U 99025BSB 25336.80923255  .00001829  00000+0  11428-2 0  9990", "line2": "2 31371  98.7674  10.1417 0077621 274.6394  84.5912 14.04467931956075"}}, "geometry": {"type": "Point", "coordinates": [83.91616356216886, -80.84772383229038]}}, {"type": "Feature", "properties": {"norad_id": 31372, "name": "FENGYUN 1C DEB", "group": "fengyun-1c-debris", "lat": -14.421335161253479, "lon": -29.89174095529852, "alt_km": 818.7253605083633, "timestamp": "2025-12-03T06:58:43.519997+00:00", "meta": {"OBJECT_NAME": "FENGYUN 1C DEB", "OBJECT_ID": "1999-025BSC", "EPOCH": "2025-11-30T21:48:31.869216", "MEAN_MOTION": 14.26400241, "ECCENTRICITY": 0.00335765, "INCLINATION": 99.3732, "RA_OF_ASC_NODE": 325.1261, "ARG_OF_PERICENTER": 108.0646, "MEAN_ANOMALY": 252.4194, "EPHEMERIS_TYPE": 0, "CLASSIFICATION_TYPE": "U", "NORAD_CAT_ID": 31372, "ELEMENT_SET_NO": 999, "REV_AT_EPOCH": 95682, "BSTAR": 0.0015727386, "MEAN_MOTION_DOT": 3.757e-05, "MEAN_MOTION_DDOT": 0}, "tle": {"line1": "1 31372U 99025BSC 25334.90870219  .00003757  00000+0  15727-2 0  9999", "line2": "2 31372  99.3732 325.1261 0033576 108.0646 252.4194 14.26400241956821"}}, "geometry": {"type": "Point", "coordinates": [-29.89174095529852, -14.421335161253479]}}, {"type": "Feature", "properties": {"norad_id": 31376, "name": "FENGYUN 1C DEB", "group": "fengyun-1c-debris", "lat": 42.01653816197897, "lon": 80.91724907248219, "alt_km": 719.2476654881457, "timestamp": "2025-12-03T06:58:43.520007+00:00", "meta": {"OBJECT_NAME": "FENGYUN 1C DEB", "OBJECT_ID": "1999-025BSG", "EPOCH": "2025-12-02T07:20:36.131136", "MEAN_MOTION": 14.61313356, "ECCENTRICITY": 0.0050542, "INCLINATION": 98.8328, "RA_OF_ASC_NODE": 251.8134, "ARG_OF_PERICENTER": 301.7339, "MEAN_ANOMALY": 57.8939, "EPHEMERIS_TYPE": 0, "CLASSIFICATION_TYPE": "U", "NORAD_CAT_ID": 31376, "ELEMENT_SET_NO": 999, "REV_AT_EPOCH": 97990, "BSTAR": 0.0029564, "MEAN_MOTION_DOT": 0.00014841, "MEAN_MOTION_DDOT": 0}, "tle": {"line1": "1 31376U 99025BSG 25336.30597374  .00014841  00000+0  29564-2 0  9997", "line2": "2 31376  98.8328 251.8134 0050542 301.7339  57.8939 14.61313356979904"}}, "geometry": {"type": "Point", "coordinates": [80.91724907248219, 42.01653816197897]}}, {"type": "Feature", "properties": {"norad_id": 31378, "name": "FENGYUN 1C DEB", "group": "fengyun-1c-debris", "lat": 7.575021482772664, "lon": -136.51711351722452, "alt_km": 1067.5195542807805, "timestamp": "2025-12-03T06:58:43.520017+00:00", "meta": {"OBJECT_NAME": "FENGYUN 1C DEB", "OBJECT_ID": "1999-025BSJ", "EPOCH": "2025-12-01T02:44:28.916448", "MEAN_MOTION": 13.80046912, "ECCENTRICITY": 0.01687472, "INCLINATION": 100.7556, "RA_OF_ASC_NODE": 222.4601, "ARG_OF_PERICENTER": 227.2956, "MEAN_ANOMALY": 131.3877, "EPHEMERIS_TYPE": 0, "CLASSIFICATION_TYPE": "U", "NORAD_CAT_ID": 31378, "ELEMENT_SET_NO": 999, "REV_AT_EPOCH": 94063, "BSTAR": 0.00076935491, "MEAN_MOTION_DOT": 8.34e-06, "MEAN_MOTION_DDOT": 0}, "tle": {"line1": "1 31378U 99025BSJ 25335.11422357  .00000834  00000+0  76935-3 0  9997", "line2": "2 31378 100.7556 222.4601 0168747 227.2956 131.3877 13.80046912940637"}}, "geometry": {"type": "Point", "coordinates": [-136.51711351722452, 7.575021482772664]}}, {"type": "Feature", "properties": {"norad_id": 31381, "name": "FENGYUN 1C DEB", "group": "fengyun-1c-debris", "lat": 63.72011236782619, "lon": -101.57932125504745, "alt_km": 678.1721381698435, "timestamp": "2025-12-03T06:58:43.520027+00:00", "meta": {"OBJECT_NAME": "FENGYUN 1C DEB", "OBJECT_ID": "1999-025BSM", "EPOCH": "2025-11-30T23:19:04.057536", "MEAN_MOTION": 14.37002269, "ECCENTRICITY": 0.01993404, "INCLINATION": 98.4914, "RA_OF_ASC_NODE": 58.5204, "ARG_OF_PERICENTER": 67.0189, "MEAN_ANOMALY": 295.1892, "EPHEMERIS_TYPE": 0, "CLASSIFICATION_TYPE": "U", "NORAD_CAT_ID": 31381, "ELEMENT_SET_NO": 999, "REV_AT_EPOCH": 97231, "BSTAR": 0.00048835128, "MEAN_MOTION_DOT": 1.771e-05, "MEAN_MOTION_DDOT": 0}, "tle": {"line1": "1 31381U 99025BSM 25334.97157474  .00001771  00000+0  48835-3 0  9998", "line2": "2 31381  98.4914  58.5204 0199340  67.0189 295.1892 14.37002269972316"}}, "geometry": {"type": "Point", "coordinates": [-101.57932125504745, 63.72011236782619]}}, {"type": "Feature", "properties": {"norad_id": 31383, "name": "FENGYUN 1C DEB", "group": "fengyun-1c-debris", "lat": 48.19683871900993, "lon": -130.49112293574007, "alt_km": 935.2196353905074, "timestamp": "2025-12-03T06:58:43.520037+00:00", "meta": {"OBJECT_NAME": "FENGYUN 1C DEB", "OBJECT_ID": "1999-025BSP", "EPOCH": "2025-11-30T15:52:15.780864", "MEAN_MOTION": 14.05658237, "ECCENTRICITY": 0.01079896, "INCLINATION": 99.0689, "RA_OF_ASC_NODE": 36.5888, "ARG_OF_PERICENTER": 351.3472, "MEAN_ANOMALY": 159.9983, "EPHEMERIS_TYPE": 0, "CLASSIFICATION_TYPE": "U", "NORAD_CAT_ID": 31383, "ELEMENT_SET_NO": 999, "REV_AT_EPOCH": 95199, "BSTAR": 0.0006307032, "MEAN_MOTION_DOT": 1.037e-05, "MEAN_MOTION_DDOT": 0}, "tle": {"line1": "1 31383U 99025BSP 25334.66129376  .00001037  00000+0  63070-3 0  9999", "line2": "2 31383  99.0689  36.5888 0107989 351.3472 159.9983 14.05658237951996"}}, "geometry": {"type": "Point", "coordinates": [-130.49112293574007, 48.19683871900993]}}]}